{
  "type": "FeatureCollection",
  "features": [
    {
      "type": "Feature",
      "properties": {
        "norad_id": 36453,
        "name": "COSMOS 2251 DEB",
        "group": "cosmos-2251-debris",
        "lat": 22.92402458350489,
        "lon": -55.73722608823903,
        "alt_km": 744.2323455939668,
        "timestamp": "2025-12-23T20:42:37.473326+00:00",
        "meta_object_name": "COSMOS 2251 DEB",
        "meta_object_id": "1993-036BBC",
        "meta_epoch": "2025-12-22T19:53:39.232320",
        "meta_mean_motion": 14.52671093,
        "meta_eccentricity": 0.00706202,
        "meta_inclination": 73.9241,
        "meta_ra_of_asc_node": 133.2304,
        "meta_arg_of_pericenter": 33.762,
        "meta_mean_anomaly": 116.2668,
        "meta_ephemeris_type": 0,
        "meta_classification_type": "U",
        "meta_norad_cat_id": 36453,
        "meta_element_set_no": 999,
        "meta_rev_at_epoch": 84614,
        "meta_bstar": 0.00082517813,
        "meta_mean_motion_dot": 3.465e-05,
        "meta_mean_motion_ddot": 0,
        "tle_line1": "1 36453U 93036BBC 25356.82892630  .00003465  00000+0  82518-3 0  9995",
        "tle_line2": "2 36453  73.9241 133.2304 0070620  33.7620 116.2668 14.52671093846142"
      },
      "geometry": {
        "type": "Point",
        "coordinates": [
          -55.73722608823903,
          22.92402458350489
        ]
      }
    },
    {
      "type": "Feature",
      "properties": {
        "norad_id": 36459,
        "name": "COSMOS 2251 DEB",
        "group": "cosmos-2251-debris",
        "lat": 67.51348108491034,
        "lon": 115.98707221061774,
        "alt_km": 728.4589948743023,
        "timestamp": "2025-12-23T20:42:37.473337+00:00",
        "meta_object_name": "COSMOS 2251 DEB",
        "meta_object_id": "1993-036BBJ",
        "meta_epoch": "2025-12-20T06:23:01.272480",
        "meta_mean_motion": 14.26454896,
        "meta_eccentricity": 0.0113312,
        "meta_inclination": 74.0464,
        "meta_ra_of_asc_node": 346.1968,
        "meta_arg_of_pericenter": 79.9168,
        "meta_mean_anomaly": 281.4741,
        "meta_ephemeris_type": 0,
        "meta_classification_type": "U",
        "meta_norad_cat_id": 36459,
        "meta_element_set_no": 999,
        "meta_rev_at_epoch": 7989,
        "meta_bstar": 0.00092616994,
        "meta_mean_motion_dot": 2.362e-05,
        "meta_mean_motion_ddot": 0,
        "tle_line1": "1 36459U 93036BBJ 25354.26598695  .00002362  00000+0  92617-3 0  9997",
        "tle_line2": "2 36459  74.0464 346.1968 0113312  79.9168 281.4741 14.26454896 79891"
      },
      "geometry": {
        "type": "Point",
        "coordinates": [
          115.98707221061774,
          67.51348108491034
        ]
      }
    },
    {
      "type": "Feature",
      "properties": {
        "norad_id": 36470,
        "name": "COSMOS 2251 DEB",
        "group": "cosmos-2251-debris",
        "lat": 17.937352804200597,
        "lon": 45.881826638817415,
        "alt_km": 545.633341833146,
        "timestamp": "2025-12-23T20:42:37.473347+00:00",
        "meta_object_name": "COSMOS 2251 DEB",
        "meta_object_id": "1993-036BBV",
        "meta_epoch": "2025-12-15T00:13:00.014016",
        "meta_mean_motion": 15.07582269,
        "meta_eccentricity": 0.00222568,
        "meta_inclination": 73.8449,
        "meta_ra_of_asc_node": 249.6845,
        "meta_arg_of_pericenter": 78.1368,
        "meta_mean_anomaly": 282.2316,
        "meta_ephemeris_type": 0,
        "meta_classification_type": "U",
        "meta_norad_cat_id": 36470,
        "meta_element_set_no": 999,
        "meta_rev_at_epoch": 66128,
        "meta_bstar": 0.0018721064,
        "meta_mean_motion_dot": 0.0002872,
        "meta_mean_motion_ddot": 0,
        "tle_line1": "1 36470U 93036BBV 25349.00902794  .00028720  00000+0  18721-2 0  9994",
        "tle_line2": "2 36470  73.8449 249.6845 0022256  78.1368 282.2316 15.07582269661287"
      },
      "geometry": {
        "type": "Point",
        "coordinates": [
          45.881826638817415,
          17.937352804200597
        ]
      }
    },
    {
      "type": "Feature",
      "properties": {
        "norad_id": 36528,
        "name": "COSMOS 2251 DEB",
        "group": "cosmos-2251-debris",
        "lat": 26.193110119417064,
        "lon": 133.05290505944004,
        "alt_km": 837.2066023159678,
        "timestamp": "2025-12-23T20:42:37.473357+00:00",
        "meta_object_name": "COSMOS 2251 DEB",
        "meta_object_id": "1993-036BCN",
        "meta_epoch": "2025-12-23T02:07:16.025088",
        "meta_mean_motion": 14.30700517,
        "meta_eccentricity": 0.00843039,
        "meta_inclination": 74.0164,
        "meta_ra_of_asc_node": 126.3587,
        "meta_arg_of_pericenter": 173.6908,
        "meta_mean_anomaly": 186.5326,
        "meta_ephemeris_type": 0,
        "meta_classification_type": "U",
        "meta_norad_cat_id": 36528,
        "meta_element_set_no": 999,
        "meta_rev_at_epoch": 64575,
        "meta_bstar": 0.0012053089,
        "meta_mean_motion_dot": 3.253e-05,
        "meta_mean_motion_ddot": 0,
        "tle_line1": "1 36528U 93036BCN 25357.08837992  .00003253  00000+0  12053-2 0  9998",
        "tle_line2": "2 36528  74.0164 126.3587 0084303 173.6908 186.5326 14.30700517645758"
      },
      "geometry": {
        "type": "Point",
        "coordinates": [
          133.05290505944004,
          26.193110119417064
        ]
      }
    },
    {
      "type": "Feature",
      "properties": {
        "norad_id": 36533,
        "name": "COSMOS 2251 DEB",
        "group": "cosmos-2251-debris",
        "lat": -49.65524488311702,
        "lon": -66.35703438470833,
        "alt_km": 698.057535936362,
        "timestamp": "2025-12-23T20:42:37.473367+00:00",
        "meta_object_name": "COSMOS 2251 DEB",
        "meta_object_id": "1993-036BCT",
        "meta_epoch": "2025-12-20T07:10:55.572384",
        "meta_mean_motion": 14.49841548,
        "meta_eccentricity": 0.00492519,
        "meta_inclination": 74.0124,
        "meta_ra_of_asc_node": 100.614,
        "meta_arg_of_pericenter": 248.4514,
        "meta_mean_anomaly": 111.1393,
        "meta_ephemeris_type": 0,
        "meta_classification_type": "U",
        "meta_norad_cat_id": 36533,
        "meta_element_set_no": 999,
        "meta_rev_at_epoch": 84594,
        "meta_bstar": 0.00033689925,
        "meta_mean_motion_dot": 1.292e-05,
        "meta_mean_motion_ddot": 0,
        "tle_line1": "1 36533U 93036BCT 25354.29925431  .00001292  00000+0  33690-3 0  9992",
        "tle_line2": "2 36533  74.0124 100.6140 0049251 248.4514 111.1393 14.49841548845948"
      },
      "geometry": {
        "type": "Point",
        "coordinates": [
          -66.35703438470833,
          -49.65524488311702
        ]
      }
    },
    {
      "type": "Feature",
      "properties": {
        "norad_id": 36539,
        "name": "COSMOS 2251 DEB",
        "group": "cosmos-2251-debris",
        "lat": 73.6380024583174,
        "lon": 136.5771799768286,
        "alt_km": 685.6335523383159,
        "timestamp": "2025-12-23T20:42:37.473377+00:00",
        "meta_object_name": "COSMOS 2251 DEB",
        "meta_object_id": "1993-036BCZ",
        "meta_epoch": "2025-12-23T03:49:47.714592",
        "meta_mean_motion": 14.59361333,
        "meta_eccentricity": 0.00265365,
        "meta_inclination": 74.0227,
        "meta_ra_of_asc_node": 35.3016,
        "meta_arg_of_pericenter": 178.4926,
        "meta_mean_anomaly": 181.6325,
        "meta_ephemeris_type": 0,
        "meta_classification_type": "U",
        "meta_norad_cat_id": 36539,
        "meta_element_set_no": 999,
        "meta_rev_at_epoch": 84099,
        "meta_bstar": 0.00063693157,
        "meta_mean_motion_dot": 3e-05,
        "meta_mean_motion_ddot": 0,
        "tle_line1": "1 36539U 93036BCZ 25357.15958003  .00003000  00000+0  63693-3 0  9992",
        "tle_line2": "2 36539  74.0227  35.3016 0026536 178.4926 181.6325 14.59361333840991"
      },
      "geometry": {
        "type": "Point",
        "coordinates": [
          136.5771799768286,
          73.6380024583174
        ]
      }
    },
    {
      "type": "Feature",
      "properties": {
        "norad_id": 36540,
        "name": "COSMOS 2251 DEB",
        "group": "cosmos-2251-debris",
        "lat": 22.597278485012442,
        "lon": 166.17823969731506,
        "alt_km": 706.4072683262957,
        "timestamp": "2025-12-23T20:42:37.473387+00:00",
        "meta_object_name": "COSMOS 2251 DEB",
        "meta_object_id": "1993-036BDA",
        "meta_epoch": "2025-12-23T04:08:28.948128",
        "meta_mean_motion": 14.58576598,
        "meta_eccentricity": 0.00146213,
        "meta_inclination": 74.0278,
        "meta_ra_of_asc_node": 160.6465,
        "meta_arg_of_pericenter": 230.4281,
        "meta_mean_anomaly": 129.5593,
        "meta_ephemeris_type": 0,
        "meta_classification_type": "U",
        "meta_norad_cat_id": 36540,
        "meta_element_set_no": 999,
        "meta_rev_at_epoch": 86162,
        "meta_bstar": 0.0011913818,
        "meta_mean_motion_dot": 5.526e-05,
        "meta_mean_motion_ddot": 0,
        "tle_line1": "1 36540U 93036BDA 25357.17255727  .00005526  00000+0  11914-2 0  9992",
        "tle_line2": "2 36540  74.0278 160.6465 0014621 230.4281 129.5593 14.58576598861625"
      },
      "geometry": {
        "type": "Point",
        "coordinates": [
          166.17823969731506,
          22.597278485012442
        ]
      }
    }
  ]
}